{
    "links": {
        "self": "http://www.neowsapp.com/rest/v1/neo/3836847?api_key=iIulBulltgU6a56xZRHN4H3l9WmuAYTsLGpBGhQ2"
    },
    "id": "3836847",
    "neo_reference_id": "3836847",
    "name": "(2018 XL2)",
    "designation": "2018 XL2",
    "nasa_jpl_url": "http://ssd.jpl.nasa.gov/sbdb.cgi?sstr=3836847",
    "absolute_magnitude_h": 24.3,
    "estimated_diameter": {
        "kilometers": {
            "estimated_diameter_min": 0.0366906138,
            "estimated_diameter_max": 0.0820427065
        },
        "meters": {
            "estimated_diameter_min": 36.6906137531,
            "estimated_diameter_max": 82.0427064882
        },
        "miles": {
            "estimated_diameter_min": 0.0227984834,
            "estimated_diameter_max": 0.0509789586
        },
        "feet": {
            "estimated_diameter_min": 120.3760332259,
            "estimated_diameter_max": 269.1689931548
        }
    },
    "is_potentially_hazardous_asteroid": false,
    "close_approach_data": [
        {
            "close_approach_date": "2016-11-29",
            "close_approach_date_full": "2016-Nov-29 08:56",
            "epoch_date_close_approach": 1480409760000,
            "relative_velocity": {
                "kilometers_per_second": "11.1768895691",
                "kilometers_per_hour": "40236.802448909",
                "miles_per_hour": "25001.5842772124"
            },
            "miss_distance": {
                "astronomical": "0.0793956994",
                "lunar": "30.8849270666",
                "kilometers": "11877427.517400278",
                "miles": "7380291.2306607164"
            },
            "orbiting_body": "Earth"
        },
        {
            "close_approach_date": "2018-12-01",
            "close_approach_date_full": "2018-Dec-01 21:35",
            "epoch_date_close_approach": 1543700100000,
            "relative_velocity": {
                "kilometers_per_second": "11.5327071035",
                "kilometers_per_hour": "41517.7455725503",
                "miles_per_hour": "25797.5125197883"
            },
            "miss_distance": {
                "astronomical": "0.0948758817",
                "lunar": "36.9067179813",
                "kilometers": "14193229.816691979",
                "miles": "8819264.0533841502"
            },
            "orbiting_body": "Earth"
        }
    ],
    "orbital_data": {
        "orbit_id": "1",
        "orbit_determination_date": "2018-12-12 07:42:07",
        "first_observation_date": "2018-12-10",
        "last_observation_date": "2018-12-12",
        "data_arc_in_days": 2,
        "observations_used": 26,
        "orbit_uncertainty": "8",
        "minimum_orbit_intersection": ".0786893",
        "jupiter_tisserand_invariant": "4.254",
        "epoch_osculation": "2458462.5",
        "eccentricity": ".335175298367471",
        "semi_major_axis": "1.591576098429676",
        "inclination": "19.14608789374033",
        "ascending_node_longitude": "69.56441133257647",
        "orbital_period": "733.3976931721241",
        "perihelion_distance": "1.058119104763974",
        "perihelion_argument": "345.7289665813585",
        "aphelion_distance": "2.125033092095378",
        "perihelion_time": "2458443.857214767824",
        "mean_anomaly": "9.151109617695829",
        "mean_motion": ".4908660108309205",
        "equinox": "J2000",
        "orbit_class": {
            "orbit_class_type": "AMO",
            "orbit_class_description": "Near-Earth asteroid orbits similar to that of 1221 Amor",
            "orbit_class_range": "1.017 AU < q (perihelion) < 1.3 AU"
        }
    },
    "is_sentry_object": false
}